ONEWEB-0520             
1 54138U 22138AB  25032.51156061  .00000114  00000+0  25287-3 0  9996
2 54138  87.9142  44.4834 0001898 103.7792 256.3552 13.19724345110780
ONEWEB-0521             
1 54139U 22138AC  25033.07544897  .00000018  00000+0  13222-4 0  9997
2 54139  87.9140  44.3606 0001683  83.4449 276.6875 13.19723944111700
ONEWEB-0522             
1 54140U 22138AD  25033.50981456  .00000245  00000+0  58077-3 0  9991
2 54140  87.9141  44.2752 0001962  93.3785 266.7572 13.19724378111770
ONEWEB-0523             
1 54141U 22138AE  25032.88415898  .00000366  00000+0  86826-3 0  9991
2 54141  87.9285  13.9793 0002482  64.9671 295.1720 13.20770953114130
ONEWEB-0524             
1 54142U 22138AF  25032.49430828  .00000113  00000+0  24699-3 0  9999
2 54142  87.9275  14.0602 0002815  83.5808 276.5645 13.20769387113216
ONEWEB-0525             
1 54143U 22138AG  25033.52877551  .00000078  00000+0  16199-3 0  9999
2 54143  87.9142  44.2870 0001795 101.8775 258.2559 13.19724990111796
ONEWEB-0526             
1 54144U 22138AH  25033.10703709 -.00000012  00000+0 -61410-4 0  9994
2 54144  87.9139  44.3624 0001899  94.9543 265.1806 13.19724021111710
ONEWEB-0529             
1 54145U 22138AJ  25033.03437921  .00000090  00000+0  19218-3 0  9999
2 54145  87.9148  44.4086 0001899 100.3828 259.7519 13.19724357111725
